PELICAN-6               
1 66703U 25276AP  26068.70709364  .00077979  00000+0  29726-2 0  9998
2 66703  97.4276 144.2072 0003569 157.8575 202.2819 15.26377980 15334
STARLINK-36174          
1 67166U 25303D   26068.07979290  .00039595  00000+0  14398-2 0  9991
2 67166  43.0029 314.0153 0002509 253.7546 106.3030 15.27597520 12640
